CCSDS_OMM_VERS = 2.0
CREATION_DATE  = 
ORIGINATOR     = 

OBJECT_NAME    = STARLINK-36706
OBJECT_ID      = 2026-022K
CENTER_NAME    = EARTH
REF_FRAME      = TEME
TIME_SYSTEM    = UTC
MEAN_ELEMENT_THEORY = SGP/SGP4

EPOCH          = 2026-02-18T06:00:02.000160
MEAN_MOTION    = 15.75228597
ECCENTRICITY   = .00014742
INCLINATION    = 97.2839
RA_OF_ASC_NODE = 82.2797
ARG_OF_PERICENTER = 109.7046
MEAN_ANOMALY   = 102.2127

EPHEMERIS_TYPE = 0
CLASSIFICATION_TYPE = U
NORAD_CAT_ID   = 67657
ELEMENT_SET_NO = 999
REV_AT_EPOCH   = 373
BSTAR          = -.68207675E-3
MEAN_MOTION_DOT = -.100845E-2
MEAN_MOTION_DDOT = 0

CCSDS_OMM_VERS = 2.0
CREATION_DATE  = 
ORIGINATOR     = 

OBJECT_NAME    = STARLINK-36701
OBJECT_ID      = 2026-022L
CENTER_NAME    = EARTH
REF_FRAME      = TEME
TIME_SYSTEM    = UTC
MEAN_ELEMENT_THEORY = SGP/SGP4

EPOCH          = 2026-02-18T06:00:02.000160
MEAN_MOTION    = 15.75205368
ECCENTRICITY   = .00012058
INCLINATION    = 97.2838
RA_OF_ASC_NODE = 82.2831
ARG_OF_PERICENTER = 82.2204
MEAN_ANOMALY   = 135.7062

EPHEMERIS_TYPE = 0
CLASSIFICATION_TYPE = U
NORAD_CAT_ID   = 67658
ELEMENT_SET_NO = 999
REV_AT_EPOCH   = 376
BSTAR          = -.48866032E-3
MEAN_MOTION_DOT = -.72449E-3
MEAN_MOTION_DDOT = 0

CCSDS_OMM_VERS = 2.0
CREATION_DATE  = 
ORIGINATOR     = 

OBJECT_NAME    = STARLINK-36642
OBJECT_ID      = 2026-022M
CENTER_NAME    = EARTH
REF_FRAME      = TEME
TIME_SYSTEM    = UTC
MEAN_ELEMENT_THEORY = SGP/SGP4

EPOCH          = 2026-02-18T06:00:02.000160
MEAN_MOTION    = 15.75205098
ECCENTRICITY   = .0001055
INCLINATION    = 97.2837
RA_OF_ASC_NODE = 82.2853
ARG_OF_PERICENTER = 78.6432
MEAN_ANOMALY   = 145.2860

EPHEMERIS_TYPE = 0
CLASSIFICATION_TYPE = U
NORAD_CAT_ID   = 67659
ELEMENT_SET_NO = 999
REV_AT_EPOCH   = 376
BSTAR          = -.63769638E-3
MEAN_MOTION_DOT = -.94263E-3
MEAN_MOTION_DDOT = 0

CCSDS_OMM_VERS = 2.0
CREATION_DATE  = 
ORIGINATOR     = 

OBJECT_NAME    = STARLINK-36673
OBJECT_ID      = 2026-022N
CENTER_NAME    = EARTH
REF_FRAME      = TEME
TIME_SYSTEM    = UTC
MEAN_ELEMENT_THEORY = SGP/SGP4

EPOCH          = 2026-02-18T06:00:02.000160
MEAN_MOTION    = 15.75206226
ECCENTRICITY   = .00013405
INCLINATION    = 97.2841
RA_OF_ASC_NODE = 82.2886
ARG_OF_PERICENTER = 107.3126
MEAN_ANOMALY   = 124.6132

EPHEMERIS_TYPE = 0
CLASSIFICATION_TYPE = U
NORAD_CAT_ID   = 67660
ELEMENT_SET_NO = 999
REV_AT_EPOCH   = 376
BSTAR          = -.49273132E-3
MEAN_MOTION_DOT = -.7305E-3
MEAN_MOTION_DDOT = 0

CCSDS_OMM_VERS = 2.0
CREATION_DATE  = 
ORIGINATOR     = 

OBJECT_NAME    = STARLINK-36674
OBJECT_ID      = 2026-022P
CENTER_NAME    = EARTH
REF_FRAME      = TEME
TIME_SYSTEM    = UTC
MEAN_ELEMENT_THEORY = SGP/SGP4

EPOCH          = 2026-02-18T06:00:02.000160
MEAN_MOTION    = 15.75202171
ECCENTRICITY   = .00012473
INCLINATION    = 97.2842
RA_OF_ASC_NODE = 82.2921
ARG_OF_PERICENTER = 94.1366
MEAN_ANOMALY   = 145.7912

EPHEMERIS_TYPE = 0
CLASSIFICATION_TYPE = U
NORAD_CAT_ID   = 67661
ELEMENT_SET_NO = 999
REV_AT_EPOCH   = 376
BSTAR          = -.49010383E-3
MEAN_MOTION_DOT = -.72651E-3
MEAN_MOTION_DDOT = 0

CCSDS_OMM_VERS = 2.0
CREATION_DATE  = 
ORIGINATOR     = 

OBJECT_NAME    = STARLINK-36700
OBJECT_ID      = 2026-022Q
CENTER_NAME    = EARTH
REF_FRAME      = TEME
TIME_SYSTEM    = UTC
MEAN_ELEMENT_THEORY = SGP/SGP4

EPOCH          = 2026-02-18T06:00:02.000160
MEAN_MOTION    = 15.75166358
ECCENTRICITY   = .00014101
INCLINATION    = 97.2845
RA_OF_ASC_NODE = 82.2967
ARG_OF_PERICENTER = 115.8962
MEAN_ANOMALY   = 136.0465

EPHEMERIS_TYPE = 0
CLASSIFICATION_TYPE = U
NORAD_CAT_ID   = 67662
ELEMENT_SET_NO = 999
REV_AT_EPOCH   = 376
BSTAR          = -.26154611E-3
MEAN_MOTION_DOT = -.38924E-3
MEAN_MOTION_DDOT = 0

CCSDS_OMM_VERS = 2.0
CREATION_DATE  = 
ORIGINATOR     = 

OBJECT_NAME    = STARLINK-36675
OBJECT_ID      = 2026-022R
CENTER_NAME    = EARTH
REF_FRAME      = TEME
TIME_SYSTEM    = UTC
MEAN_ELEMENT_THEORY = SGP/SGP4

EPOCH          = 2026-02-18T06:00:02.000160
MEAN_MOTION    = 15.75192978
ECCENTRICITY   = .00012244
INCLINATION    = 97.2841
RA_OF_ASC_NODE = 82.2926
ARG_OF_PERICENTER = 73.4341
MEAN_ANOMALY   = 170.4948

EPHEMERIS_TYPE = 0
CLASSIFICATION_TYPE = U
NORAD_CAT_ID   = 67663
ELEMENT_SET_NO = 999
REV_AT_EPOCH   = 376
BSTAR          = -.45377497E-3
MEAN_MOTION_DOT = -.6729E-3
MEAN_MOTION_DDOT = 0

CCSDS_OMM_VERS = 2.0
CREATION_DATE  = 
ORIGINATOR     = 

OBJECT_NAME    = STARLINK-36404
OBJECT_ID      = 2026-022S
CENTER_NAME    = EARTH
REF_FRAME      = TEME
TIME_SYSTEM    = UTC
MEAN_ELEMENT_THEORY = SGP/SGP4

EPOCH          = 2026-02-18T06:00:02.000160
MEAN_MOTION    = 15.75215025
ECCENTRICITY   = .00007147
INCLINATION    = 97.2845
RA_OF_ASC_NODE = 82.2985
ARG_OF_PERICENTER = 78.3738
MEAN_ANOMALY   = 183.5423

EPHEMERIS_TYPE = 0
CLASSIFICATION_TYPE = U
NORAD_CAT_ID   = 67664
ELEMENT_SET_NO = 999
REV_AT_EPOCH   = 373
BSTAR          = -.62437091E-3
MEAN_MOTION_DOT = -.92353E-3
MEAN_MOTION_DDOT = 0

CCSDS_OMM_VERS = 2.0
CREATION_DATE  = 
ORIGINATOR     = 

OBJECT_NAME    = STARLINK-36399
OBJECT_ID      = 2026-022T
CENTER_NAME    = EARTH
REF_FRAME      = TEME
TIME_SYSTEM    = UTC
MEAN_ELEMENT_THEORY = SGP/SGP4

EPOCH          = 2026-02-18T06:00:02.000160
MEAN_MOTION    = 15.75196412
ECCENTRICITY   = .00009174
INCLINATION    = 97.2846
RA_OF_ASC_NODE = 82.3009
ARG_OF_PERICENTER = 111.1968
MEAN_ANOMALY   = 154.7341

EPHEMERIS_TYPE = 0
CLASSIFICATION_TYPE = U
NORAD_CAT_ID   = 67665
ELEMENT_SET_NO = 999
REV_AT_EPOCH   = 373
BSTAR          = -.5497355E-3
MEAN_MOTION_DOT = -.81369E-3
MEAN_MOTION_DDOT = 0

CCSDS_OMM_VERS = 2.0
CREATION_DATE  = 
ORIGINATOR     = 

OBJECT_NAME    = STARLINK-36365
OBJECT_ID      = 2026-022U
CENTER_NAME    = EARTH
REF_FRAME      = TEME
TIME_SYSTEM    = UTC
MEAN_ELEMENT_THEORY = SGP/SGP4

EPOCH          = 2026-02-18T06:00:02.000160
MEAN_MOTION    = 15.75285165
ECCENTRICITY   = .00010935
INCLINATION    = 97.2842
RA_OF_ASC_NODE = 82.3063
ARG_OF_PERICENTER = 91.1932
MEAN_ANOMALY   = 182.3631

EPHEMERIS_TYPE = 0
CLASSIFICATION_TYPE = U
NORAD_CAT_ID   = 67666
ELEMENT_SET_NO = 999
REV_AT_EPOCH   = 376
BSTAR          = .12668516E-2
MEAN_MOTION_DOT = .193979E-2
MEAN_MOTION_DDOT = 0

CCSDS_OMM_VERS = 2.0
CREATION_DATE  = 
ORIGINATOR     = 

OBJECT_NAME    = STARLINK-36622
OBJECT_ID      = 2026-022V
CENTER_NAME    = EARTH
REF_FRAME      = TEME
TIME_SYSTEM    = UTC
MEAN_ELEMENT_THEORY = SGP/SGP4

EPOCH          = 2026-02-18T06:00:02.000160
MEAN_MOTION    = 15.75219793
ECCENTRICITY   = .00012253
INCLINATION    = 97.2844
RA_OF_ASC_NODE = 82.3086
ARG_OF_PERICENTER = 57.3537
MEAN_ANOMALY   = 226.5559

EPHEMERIS_TYPE = 0
CLASSIFICATION_TYPE = U
NORAD_CAT_ID   = 67667
ELEMENT_SET_NO = 999
REV_AT_EPOCH   = 376
BSTAR          = -.68408743E-3
MEAN_MOTION_DOT = -.101097E-2
MEAN_MOTION_DDOT = 0

CCSDS_OMM_VERS = 2.0
CREATION_DATE  = 
ORIGINATOR     = 

OBJECT_NAME    = STARLINK-36625
OBJECT_ID      = 2026-022W
CENTER_NAME    = EARTH
REF_FRAME      = TEME
TIME_SYSTEM    = UTC
MEAN_ELEMENT_THEORY = SGP/SGP4

EPOCH          = 2026-02-18T06:00:02.000160
MEAN_MOTION    = 15.75206335
ECCENTRICITY   = .00011338
INCLINATION    = 97.2844
RA_OF_ASC_NODE = 82.3116
ARG_OF_PERICENTER = 105.9242
MEAN_ANOMALY   = 185.9951

EPHEMERIS_TYPE = 0
CLASSIFICATION_TYPE = U
NORAD_CAT_ID   = 67668
ELEMENT_SET_NO = 999
REV_AT_EPOCH   = 376
BSTAR          = -.66769213E-3
MEAN_MOTION_DOT = -.98647E-3
MEAN_MOTION_DDOT = 0

