STARLINK-36706          
1 67657U 26022K   26049.25002315 -.00100845  00000+0 -68208-3 0  9998
2 67657  97.2839  82.2797 0001474 109.7046 102.2127 15.75228597  3738
STARLINK-36701          
1 67658U 26022L   26049.25002315 -.00072449  00000+0 -48866-3 0  9995
2 67658  97.2838  82.2831 0001205  82.2204 135.7062 15.75205368  3763
STARLINK-36642          
1 67659U 26022M   26049.25002315 -.00094263  00000+0 -63770-3 0  9995
2 67659  97.2837  82.2853 0001055  78.6432 145.2860 15.75205098  3764
STARLINK-36673          
1 67660U 26022N   26049.25002315 -.00073050  00000+0 -49273-3 0  9990
2 67660  97.2841  82.2886 0001340 107.3126 124.6132 15.75206226  3761
STARLINK-36674          
1 67661U 26022P   26049.25002315 -.00072651  00000+0 -49010-3 0  9996
2 67661  97.2842  82.2921 0001247  94.1366 145.7912 15.75202171  3763
STARLINK-36700          
1 67662U 26022Q   26049.25002315 -.00038924  00000+0 -26155-3 0  9997
2 67662  97.2845  82.2967 0001410 115.8962 136.0465 15.75166358  3764
STARLINK-36675          
1 67663U 26022R   26049.25002315 -.00067290  00000+0 -45377-3 0  9993
2 67663  97.2841  82.2926 0001224  73.4341 170.4948 15.75192978  3764
STARLINK-36404          
1 67664U 26022S   26049.25002315 -.00092353  00000+0 -62437-3 0  9998
2 67664  97.2845  82.2985 0000714  78.3738 183.5423 15.75215025  3730
STARLINK-36399          
1 67665U 26022T   26049.25002315 -.00081369  00000+0 -54974-3 0  9991
2 67665  97.2846  82.3009 0000917 111.1968 154.7341 15.75196412  3733
STARLINK-36365          
1 67666U 26022U   26049.25002315  .00193979  00000+0  12669-2 0  9995
2 67666  97.2842  82.3063 0001093  91.1932 182.3631 15.75285165  3760
STARLINK-36622          
1 67667U 26022V   26049.25002315 -.00101097  00000+0 -68409-3 0  9992
2 67667  97.2844  82.3086 0001225  57.3537 226.5559 15.75219793  3764
STARLINK-36625          
1 67668U 26022W   26049.25002315 -.00098647  00000+0 -66769-3 0  9996
2 67668  97.2844  82.3116 0001133 105.9242 185.9951 15.75206335  3762
